start=new Date('2021-09-10T00:00:00.000Z').valueOf();
sats=[{"GP_ID":"184408420","FILE":"3111873","ECCENTRICITY":"0.00016060","MEAN_ANOMALY":"282.2508","APOAPSIS":"548.350","MEAN_MOTION":"15.06392196","RA_OF_ASC_NODE":"91.8864","OBJECT_ID":"2020-088BF","TIME_SYSTEM":"UTC","COUNTRY_CODE":"US","EPOCH":"2021-09-09T21:35:24.394560","RCS_SIZE":"LARGE","INCLINATION":"53.0550","SITE":"AFETR","NORAD_CAT_ID":"47175","REV_AT_EPOCH":"4466","CLASSIFICATION_TYPE":"U","DECAY_DATE":null,"EPHEMERIS_TYPE":"0","BSTAR":"0.00009288400000","REF_FRAME":"TEME","TLE_LINE1":"1 47175U 20088BF  21252.89958790  .00001102  00000-0  92884-4 0  9998","OBJECT_NAME":"STARLINK-1895","CENTER_NAME":"EARTH","MEAN_MOTION_DDOT":"0.0000000000000","LAUNCH_DATE":"2020-11-25","PERIAPSIS":"546.125","TLE_LINE2":"2 47175  53.0550  91.8864 0001606  77.8661 282.2508 15.06392196 44667","PERIOD":"95.593","SEMIMAJOR_AXIS":"6925.372","ARG_OF_PERICENTER":"77.8661","OBJECT_TYPE":"PAYLOAD","MEAN_MOTION_DOT":"0.00001102","MEAN_ELEMENT_THEORY":"SGP4","ELEMENT_SET_NO":"999"},{"LAUNCH_DATE":"2020-11-25","MEAN_MOTION_DDOT":"0.0000000000000","TLE_LINE1":"1 47177U 20088BH  21252.88392090 -.00000321  00000-0 -26245-5 0  9997","CENTER_NAME":"EARTH","OBJECT_NAME":"STARLINK-1907","BSTAR":"-0.00000262450000","REF_FRAME":"TEME","ELEMENT_SET_NO":"999","ARG_OF_PERICENTER":"98.4892","MEAN_ELEMENT_THEORY":"SGP4","MEAN_MOTION_DOT":"-0.00000321","OBJECT_TYPE":"PAYLOAD","TLE_LINE2":"2 47177  53.0551 101.9808 0001664  98.4892 261.6285 15.06397445 44520","SEMIMAJOR_AXIS":"6925.356","PERIOD":"95.592","PERIAPSIS":"546.069","TIME_SYSTEM":"UTC","OBJECT_ID":"2020-088BH","MEAN_MOTION":"15.06397445","RA_OF_ASC_NODE":"101.9808","ECCENTRICITY":"0.00016640","APOAPSIS":"548.374","MEAN_ANOMALY":"261.6285","GP_ID":"184408670","FILE":"3111873","REV_AT_EPOCH":"4452","CLASSIFICATION_TYPE":"U","EPHEMERIS_TYPE":"0","DECAY_DATE":null,"SITE":"AFETR","NORAD_CAT_ID":"47177","INCLINATION":"53.0551","EPOCH":"2021-09-09T21:12:50.765760","COUNTRY_CODE":"US","RCS_SIZE":"LARGE"},{"MEAN_MOTION_DDOT":"0.0000000000000","LAUNCH_DATE":"2020-11-25","BSTAR":"-0.00000667410000","REF_FRAME":"TEME","TLE_LINE1":"1 47178U 20088BJ  21252.66553455 -.00000381  00000-0 -66741-5 0  9999","CENTER_NAME":"EARTH","OBJECT_NAME":"STARLINK-1912","ARG_OF_PERICENTER":"73.5976","MEAN_MOTION_DOT":"-0.00000381","MEAN_ELEMENT_THEORY":"SGP4","OBJECT_TYPE":"PAYLOAD","ELEMENT_SET_NO":"999","PERIAPSIS":"546.042","TLE_LINE2":"2 47178  53.0541 112.9422 0001733  73.5976 286.5203 15.06390542 44345","SEMIMAJOR_AXIS":"6925.378","PERIOD":"95.593","RA_OF_ASC_NODE":"112.9422","MEAN_MOTION":"15.06390542","OBJECT_ID":"2020-088BJ","TIME_SYSTEM":"UTC","GP_ID":"184409422","FILE":"3111873","ECCENTRICITY":"0.00017330","APOAPSIS":"548.443","MEAN_ANOMALY":"286.5203","SITE":"AFETR","NORAD_CAT_ID":"47178","CLASSIFICATION_TYPE":"U","REV_AT_EPOCH":"4434","EPHEMERIS_TYPE":"0","DECAY_DATE":null,"EPOCH":"2021-09-09T15:58:22.185120","COUNTRY_CODE":"US","RCS_SIZE":"LARGE","INCLINATION":"53.0541"},{"GP_ID":"184409662","FILE":"3111873","ECCENTRICITY":"0.00018230","APOAPSIS":"548.491","MEAN_ANOMALY":"284.4340","RA_OF_ASC_NODE":"122.1172","MEAN_MOTION":"15.06395282","TIME_SYSTEM":"UTC","OBJECT_ID":"2020-088BK","COUNTRY_CODE":"US","EPOCH":"2021-09-09T20:27:43.706016","RCS_SIZE":"LARGE","INCLINATION":"53.0535","SITE":"AFETR","NORAD_CAT_ID":"47179","REV_AT_EPOCH":"4423","CLASSIFICATION_TYPE":"U","DECAY_DATE":null,"EPHEMERIS_TYPE":"0","BSTAR":"-0.00000879440000","REF_FRAME":"TEME","TLE_LINE1":"1 47179U 20088BK  21252.85258919 -.00000413  00000-0 -87944-5 0  9992","CENTER_NAME":"EARTH","OBJECT_NAME":"STARLINK-1913","MEAN_MOTION_DDOT":"0.0000000000000","LAUNCH_DATE":"2020-11-25","PERIAPSIS":"545.966","TLE_LINE2":"2 47179  53.0535 122.1172 0001823  75.6852 284.4340 15.06395282 44233","SEMIMAJOR_AXIS":"6925.363","PERIOD":"95.592","ARG_OF_PERICENTER":"75.6852","OBJECT_TYPE":"PAYLOAD","MEAN_ELEMENT_THEORY":"SGP4","MEAN_MOTION_DOT":"-0.00000413","ELEMENT_SET_NO":"999"},{"GP_ID":"184407921","FILE":"3111873","ECCENTRICITY":"0.00019130","APOAPSIS":"419.945","MEAN_ANOMALY":"271.5936","RA_OF_ASC_NODE":"115.1264","MEAN_MOTION":"15.49344471","OBJECT_ID":"2020-088BL","TIME_SYSTEM":"UTC","COUNTRY_CODE":"US","EPOCH":"2021-09-09T17:47:38.407200","RCS_SIZE":"LARGE","INCLINATION":"53.0505","SITE":"AFETR","NORAD_CAT_ID":"47180","CLASSIFICATION_TYPE":"U","REV_AT_EPOCH":"4432","DECAY_DATE":null,"EPHEMERIS_TYPE":"0","BSTAR":"0.00169440000000","REF_FRAME":"TEME","TLE_LINE1":"1 47180U 20088BL  21252.74141675  .00095071  00000-0  16944-2 0  9993","CENTER_NAME":"EARTH","OBJECT_NAME":"STARLINK-1914","MEAN_MOTION_DDOT":"0.0000000000000","LAUNCH_DATE":"2020-11-25","PERIAPSIS":"417.344","TLE_LINE2":"2 47180  53.0505 115.1264 0001913  88.5291 271.5936 15.49344471 44325","SEMIMAJOR_AXIS":"6796.780","PERIOD":"92.943","ARG_OF_PERICENTER":"88.5291","OBJECT_TYPE":"PAYLOAD","MEAN_ELEMENT_THEORY":"SGP4","MEAN_MOTION_DOT":"0.00095071","ELEMENT_SET_NO":"999"},{"PERIAPSIS":"545.637","TLE_LINE2":"2 47181  53.0552  93.4164 0002302  85.2728 274.8524 15.06394206 44612","PERIOD":"95.593","SEMIMAJOR_AXIS":"6925.366","ARG_OF_PERICENTER":"85.2728","MEAN_ELEMENT_THEORY":"SGP4","MEAN_MOTION_DOT":"0.00001110","OBJECT_TYPE":"PAYLOAD","ELEMENT_SET_NO":"999","BSTAR":"0.00009342900000","REF_FRAME":"TEME","TLE_LINE1":"1 47181U 20088BM  21252.56048463  .00001110  00000-0  93429-4 0  9991","CENTER_NAME":"EARTH","OBJECT_NAME":"STARLINK-1927","MEAN_MOTION_DDOT":"0.0000000000000","LAUNCH_DATE":"2020-11-25","EPOCH":"2021-09-09T13:27:05.872032","COUNTRY_CODE":"US","RCS_SIZE":"LARGE","INCLINATION":"53.0552","SITE":"AFETR","NORAD_CAT_ID":"47181","REV_AT_EPOCH":"4461","CLASSIFICATION_TYPE":"U","EPHEMERIS_TYPE":"0","DECAY_DATE":null,"GP_ID":"184381251","FILE":"3111654","ECCENTRICITY":"0.00023020","APOAPSIS":"548.826","MEAN_ANOMALY":"274.8524","RA_OF_ASC_NODE":"93.4164","MEAN_MOTION":"15.06394206","TIME_SYSTEM":"UTC","OBJECT_ID":"2020-088BM"},{"MEAN_MOTION":"15.42187014","RA_OF_ASC_NODE":"231.8536","OBJECT_ID":"2021-005A","TIME_SYSTEM":"UTC","GP_ID":"184382018","FILE":"3111654","ECCENTRICITY":"0.00013330","APOAPSIS":"440.567","MEAN_ANOMALY":"270.6940","SITE":"AFETR","NORAD_CAT_ID":"47349","REV_AT_EPOCH":"3554","CLASSIFICATION_TYPE":"U","DECAY_DATE":null,"EPHEMERIS_TYPE":"0","COUNTRY_CODE":"US","EPOCH":"2021-09-09T08:54:48.843360","RCS_SIZE":"LARGE","INCLINATION":"53.0507","MEAN_MOTION_DDOT":"0.0000000000000","LAUNCH_DATE":"2021-01-20","BSTAR":"0.00013733000000","REF_FRAME":"TEME","TLE_LINE1":"1 47349U 21005A   21252.37139865  .00005574  00000-0  13733-3 0  9990","OBJECT_NAME":"STARLINK-1952","CENTER_NAME":"EARTH","ARG_OF_PERICENTER":"89.4217","OBJECT_TYPE":"PAYLOAD","MEAN_MOTION_DOT":"0.00005574","MEAN_ELEMENT_THEORY":"SGP4","ELEMENT_SET_NO":"999","PERIAPSIS":"438.749","TLE_LINE2":"2 47349  53.0507 231.8536 0001333  89.4217 270.6940 15.42187014 35546","SEMIMAJOR_AXIS":"6817.793","PERIOD":"93.374"},{"TIME_SYSTEM":"UTC","OBJECT_ID":"2021-005B","RA_OF_ASC_NODE":"234.4954","MEAN_MOTION":"15.06395029","ECCENTRICITY":"0.00013150","MEAN_ANOMALY":"273.4306","APOAPSIS":"548.139","GP_ID":"184380766","FILE":"3111654","CLASSIFICATION_TYPE":"U","REV_AT_EPOCH":"3550","DECAY_DATE":null,"EPHEMERIS_TYPE":"0","SITE":"AFETR","NORAD_CAT_ID":"47350","INCLINATION":"53.0522","COUNTRY_CODE":"US","EPOCH":"2021-09-09T08:00:40.359744","RCS_SIZE":"LARGE","LAUNCH_DATE":"2021-01-20","MEAN_MOTION_DDOT":"0.0000000000000","TLE_LINE1":"1 47350U 21005B   21252.33380046 -.00000531  00000-0 -16769-4 0  9990","CENTER_NAME":"EARTH","OBJECT_NAME":"STARLINK-2011","BSTAR":"-0.00001676900000","REF_FRAME":"TEME","ELEMENT_SET_NO":"999","ARG_OF_PERICENTER":"86.6833","OBJECT_TYPE":"PAYLOAD","MEAN_MOTION_DOT":"-0.00000531","MEAN_ELEMENT_THEORY":"SGP4","TLE_LINE2":"2 47350  53.0522 234.4954 0001315  86.6833 273.4306 15.06395029 35501","PERIOD":"95.592","SEMIMAJOR_AXIS":"6925.364","PERIAPSIS":"546.318"},{"APOAPSIS":"548.484","MEAN_ANOMALY":"325.2334","ECCENTRICITY":"0.00018020","FILE":"3111654","GP_ID":"184381016","TIME_SYSTEM":"UTC","OBJECT_ID":"2021-005C","MEAN_MOTION":"15.06392569","RA_OF_ASC_NODE":"194.9129","INCLINATION":"53.0513","RCS_SIZE":"LARGE","EPOCH":"2021-09-09T05:32:02.891328","COUNTRY_CODE":"US","EPHEMERIS_TYPE":"0","DECAY_DATE":null,"CLASSIFICATION_TYPE":"U","REV_AT_EPOCH":"3604","NORAD_CAT_ID":"47351","SITE":"AFETR","CENTER_NAME":"EARTH","OBJECT_NAME":"STARLINK-2017","TLE_LINE1":"1 47351U 21005C   21252.23058902 -.00000545  00000-0 -17657-4 0  9995","REF_FRAME":"TEME","BSTAR":"-0.00001765700000","LAUNCH_DATE":"2021-01-20","MEAN_MOTION_DDOT":"0.0000000000000","PERIOD":"95.593","SEMIMAJOR_AXIS":"6925.371","TLE_LINE2":"2 47351  53.0513 194.9129 0001802  34.8773 325.2334 15.06392569 36048","PERIAPSIS":"545.988","ELEMENT_SET_NO":"999","MEAN_MOTION_DOT":"-0.00000545","MEAN_ELEMENT_THEORY":"SGP4","OBJECT_TYPE":"PAYLOAD","ARG_OF_PERICENTER":"34.8773"},{"EPHEMERIS_TYPE":"0","DECAY_DATE":null,"CLASSIFICATION_TYPE":"U","REV_AT_EPOCH":"3551","NORAD_CAT_ID":"47352","SITE":"AFETR","INCLINATION":"53.0542","RCS_SIZE":"LARGE","EPOCH":"2021-09-09T10:45:12.885984","COUNTRY_CODE":"US","TIME_SYSTEM":"UTC","OBJECT_ID":"2021-005D","RA_OF_ASC_NODE":"233.9214","MEAN_MOTION":"15.06399992","APOAPSIS":"548.272","MEAN_ANOMALY":"302.8482","ECCENTRICITY":"0.00015290","FILE":"3111654","GP_ID":"184381768","ELEMENT_SET_NO":"999","MEAN_ELEMENT_THEORY":"SGP4","MEAN_MOTION_DOT":"0.00001451","OBJECT_TYPE":"PAYLOAD","ARG_OF_PERICENTER":"57.2654","PERIOD":"95.592","SEMIMAJOR_AXIS":"6925.349","TLE_LINE2":"2 47352  53.0542 233.9214 0001529  57.2654 302.8482 15.06399992 35516","PERIAPSIS":"546.155","LAUNCH_DATE":"2021-01-20","MEAN_MOTION_DDOT":"0.0000000000000","OBJECT_NAME":"STARLINK-2034","CENTER_NAME":"EARTH","TLE_LINE1":"1 47352U 21005D   21252.44806581  .00001451  00000-0  11627-3 0  9998","REF_FRAME":"TEME","BSTAR":"0.00011627000000"}];
